STARLINK-30433          
1 57878U 23144Q   25362.57822948  .00000203  00000+0  30074-4 0  9994
2 57878  43.0037 313.8772 0001093 268.6173  91.4544 15.02538540126910
STARLINK-30358          
1 57879U 23144R   25362.90839698  .00001464  00000+0  12339-3 0  9995
2 57879  43.0039 312.0504 0001239 266.1625  93.9076 15.02541598126963
STARLINK-30436          
1 57880U 23144S   25362.90063552  .00001288  00000+0  11041-3 0  9998
2 57880  43.0058 311.9960 0000933 280.0080  80.0657 15.02534255126964
STARLINK-30339          
1 57882U 23144U   25362.23252844 -.00000035  00000+0  12443-4 0  9998
2 57882  43.0036 315.5826 0001127 272.1141  87.9573 15.02533737126865
STARLINK-30282          
1 57883U 23144V   25363.29062284  .00000408  00000+0  45235-4 0  9991
2 57883  43.0002 309.7645 0001128 269.5198  90.5516 15.02537022127023
STARLINK-30340          
1 57884U 23144W   25363.28617382  .00002598  00000+0  20724-3 0  9993
2 57884  43.0040 309.7186 0001286 264.5420  95.5276 15.02552838127024
STARLINK-30279          
1 57885U 23144X   25363.28950734  .00000516  00000+0  53303-4 0  9993
2 57885  43.0046 309.7524 0001372 267.5673  92.5013 15.02538217126969
STARLINK-30465          
1 57891U 23146A   25363.35885587 -.00001368  00000+0 -86193-4 0  9994
2 57891  43.0026 335.7638 0001022 257.3184 102.7544 15.02557236126487
STARLINK-30470          
1 57892U 23146B   25363.35552059  .00000782  00000+0  72927-4 0  9997
2 57892  43.0054 335.7335 0000838 250.6995 109.3756 15.02539146126481
STARLINK-30473          
1 57893U 23146C   25362.66742610 -.00000209  00000+0 -35992-6 0  9994
2 57893  43.0049 339.1242 0001269 282.4754  77.5947 15.02540711126383
STARLINK-30443          
1 57894U 23146D   25363.28238091  .00001013  00000+0  90022-4 0  9992
2 57894  43.0037 336.0503 0001080 267.0530  93.0189 15.02539840126471
STARLINK-30467          
1 57895U 23146E   25363.28570941  .00000679  00000+0  65346-4 0  9994
2 57895  43.0022 336.0756 0001164 258.5308 101.5403 15.02543990126472
STARLINK-30469          
1 57896U 23146F   25362.21541059  .00000720  00000+0  68357-4 0  9997
2 57896  43.0019 341.8070 0001018 273.5385  86.5341 15.02539385126311
STARLINK-30474          
1 57897U 23146G   25362.67520394  .00001541  00000+0  12908-3 0  9999
2 57897  43.0048 339.2373 0000688 252.9754 107.1013 15.02540755126380
STARLINK-30479          
1 57898U 23146H   25363.00648411  .00000918  00000+0  82988-4 0  9992
2 57898  43.0051 337.4226 0001080 265.6818  94.3901 15.02539070126438
STARLINK-30481          
1 57899U 23146J   25363.00315357  .00000430  00000+0  46885-4 0  9998
2 57899  43.0063 337.3975 0001515 273.6875  86.3794 15.02537017126437
