[{"OBJECT_NAME":"STARLINK-30433","OBJECT_ID":"2023-144Q","EPOCH":"2025-12-28T13:52:39.027072","MEAN_MOTION":15.0253854,"ECCENTRICITY":0.0001093,"INCLINATION":43.0037,"RA_OF_ASC_NODE":313.8772,"ARG_OF_PERICENTER":268.6173,"MEAN_ANOMALY":91.4544,"EPHEMERIS_TYPE":0,"CLASSIFICATION_TYPE":"U","NORAD_CAT_ID":57878,"ELEMENT_SET_NO":999,"REV_AT_EPOCH":12691,"BSTAR":3.0074e-5,"MEAN_MOTION_DOT":2.03e-6,"MEAN_MOTION_DDOT":0},{"OBJECT_NAME":"STARLINK-30358","OBJECT_ID":"2023-144R","EPOCH":"2025-12-28T21:48:05.499072","MEAN_MOTION":15.02541598,"ECCENTRICITY":0.00012391,"INCLINATION":43.0039,"RA_OF_ASC_NODE":312.0504,"ARG_OF_PERICENTER":266.1625,"MEAN_ANOMALY":93.9076,"EPHEMERIS_TYPE":0,"CLASSIFICATION_TYPE":"U","NORAD_CAT_ID":57879,"ELEMENT_SET_NO":999,"REV_AT_EPOCH":12696,"BSTAR":0.00012338905,"MEAN_MOTION_DOT":1.464e-5,"MEAN_MOTION_DDOT":0},{"OBJECT_NAME":"STARLINK-30436","OBJECT_ID":"2023-144S","EPOCH":"2025-12-28T21:36:54.908928","MEAN_MOTION":15.02534255,"ECCENTRICITY":9.338e-5,"INCLINATION":43.0058,"RA_OF_ASC_NODE":311.996,"ARG_OF_PERICENTER":280.008,"MEAN_ANOMALY":80.0657,"EPHEMERIS_TYPE":0,"CLASSIFICATION_TYPE":"U","NORAD_CAT_ID":57880,"ELEMENT_SET_NO":999,"REV_AT_EPOCH":12696,"BSTAR":0.00011040801,"MEAN_MOTION_DOT":1.288e-5,"MEAN_MOTION_DDOT":0},{"OBJECT_NAME":"STARLINK-30339","OBJECT_ID":"2023-144U","EPOCH":"2025-12-28T05:34:50.457216","MEAN_MOTION":15.02533737,"ECCENTRICITY":0.0001127,"INCLINATION":43.0036,"RA_OF_ASC_NODE":315.5826,"ARG_OF_PERICENTER":272.1141,"MEAN_ANOMALY":87.9573,"EPHEMERIS_TYPE":0,"CLASSIFICATION_TYPE":"U","NORAD_CAT_ID":57882,"ELEMENT_SET_NO":999,"REV_AT_EPOCH":12686,"BSTAR":1.2443e-5,"MEAN_MOTION_DOT":-3.5e-7,"MEAN_MOTION_DDOT":0},{"OBJECT_NAME":"STARLINK-30282","OBJECT_ID":"2023-144V","EPOCH":"2025-12-29T06:58:29.813376","MEAN_MOTION":15.02537022,"ECCENTRICITY":0.0001128,"INCLINATION":43.0002,"RA_OF_ASC_NODE":309.7645,"ARG_OF_PERICENTER":269.5198,"MEAN_ANOMALY":90.5516,"EPHEMERIS_TYPE":0,"CLASSIFICATION_TYPE":"U","NORAD_CAT_ID":57883,"ELEMENT_SET_NO":999,"REV_AT_EPOCH":12702,"BSTAR":4.5235e-5,"MEAN_MOTION_DOT":4.08e-6,"MEAN_MOTION_DDOT":0},{"OBJECT_NAME":"STARLINK-30340","OBJECT_ID":"2023-144W","EPOCH":"2025-12-29T06:52:05.418048","MEAN_MOTION":15.02552838,"ECCENTRICITY":0.0001286,"INCLINATION":43.004,"RA_OF_ASC_NODE":309.7186,"ARG_OF_PERICENTER":264.542,"MEAN_ANOMALY":95.5276,"EPHEMERIS_TYPE":0,"CLASSIFICATION_TYPE":"U","NORAD_CAT_ID":57884,"ELEMENT_SET_NO":999,"REV_AT_EPOCH":12702,"BSTAR":0.00020724,"MEAN_MOTION_DOT":2.598e-5,"MEAN_MOTION_DDOT":0},{"OBJECT_NAME":"STARLINK-30279","OBJECT_ID":"2023-144X","EPOCH":"2025-12-29T06:56:53.434176","MEAN_MOTION":15.02538217,"ECCENTRICITY":0.0001372,"INCLINATION":43.0046,"RA_OF_ASC_NODE":309.7524,"ARG_OF_PERICENTER":267.5673,"MEAN_ANOMALY":92.5013,"EPHEMERIS_TYPE":0,"CLASSIFICATION_TYPE":"U","NORAD_CAT_ID":57885,"ELEMENT_SET_NO":999,"REV_AT_EPOCH":12696,"BSTAR":5.3303e-5,"MEAN_MOTION_DOT":5.16e-6,"MEAN_MOTION_DDOT":0},{"OBJECT_NAME":"STARLINK-30465","OBJECT_ID":"2023-146A","EPOCH":"2025-12-29T08:36:45.147168","MEAN_MOTION":15.02557236,"ECCENTRICITY":0.00010223,"INCLINATION":43.0026,"RA_OF_ASC_NODE":335.7638,"ARG_OF_PERICENTER":257.3184,"MEAN_ANOMALY":102.7544,"EPHEMERIS_TYPE":0,"CLASSIFICATION_TYPE":"U","NORAD_CAT_ID":57891,"ELEMENT_SET_NO":999,"REV_AT_EPOCH":12648,"BSTAR":-8.619259e-5,"MEAN_MOTION_DOT":-1.368e-5,"MEAN_MOTION_DDOT":0},{"OBJECT_NAME":"STARLINK-30470","OBJECT_ID":"2023-146B","EPOCH":"2025-12-29T08:31:56.978976","MEAN_MOTION":15.02539146,"ECCENTRICITY":8.387e-5,"INCLINATION":43.0054,"RA_OF_ASC_NODE":335.7335,"ARG_OF_PERICENTER":250.6995,"MEAN_ANOMALY":109.3756,"EPHEMERIS_TYPE":0,"CLASSIFICATION_TYPE":"U","NORAD_CAT_ID":57892,"ELEMENT_SET_NO":999,"REV_AT_EPOCH":12648,"BSTAR":7.2927377e-5,"MEAN_MOTION_DOT":7.82e-6,"MEAN_MOTION_DDOT":0},{"OBJECT_NAME":"STARLINK-30473","OBJECT_ID":"2023-146C","EPOCH":"2025-12-28T16:01:05.615040","MEAN_MOTION":15.02540711,"ECCENTRICITY":0.00012692,"INCLINATION":43.0049,"RA_OF_ASC_NODE":339.1242,"ARG_OF_PERICENTER":282.4754,"MEAN_ANOMALY":77.5947,"EPHEMERIS_TYPE":0,"CLASSIFICATION_TYPE":"U","NORAD_CAT_ID":57893,"ELEMENT_SET_NO":999,"REV_AT_EPOCH":12638,"BSTAR":-3.59923e-7,"MEAN_MOTION_DOT":-2.09e-6,"MEAN_MOTION_DDOT":0},{"OBJECT_NAME":"STARLINK-30443","OBJECT_ID":"2023-146D","EPOCH":"2025-12-29T06:46:37.710624","MEAN_MOTION":15.0253984,"ECCENTRICITY":0.000108,"INCLINATION":43.0037,"RA_OF_ASC_NODE":336.0503,"ARG_OF_PERICENTER":267.053,"MEAN_ANOMALY":93.0189,"EPHEMERIS_TYPE":0,"CLASSIFICATION_TYPE":"U","NORAD_CAT_ID":57894,"ELEMENT_SET_NO":999,"REV_AT_EPOCH":12647,"BSTAR":9.0022e-5,"MEAN_MOTION_DOT":1.013e-5,"MEAN_MOTION_DDOT":0},{"OBJECT_NAME":"STARLINK-30467","OBJECT_ID":"2023-146E","EPOCH":"2025-12-29T06:51:25.293024","MEAN_MOTION":15.0254399,"ECCENTRICITY":0.0001164,"INCLINATION":43.0022,"RA_OF_ASC_NODE":336.0756,"ARG_OF_PERICENTER":258.5308,"MEAN_ANOMALY":101.5403,"EPHEMERIS_TYPE":0,"CLASSIFICATION_TYPE":"U","NORAD_CAT_ID":57895,"ELEMENT_SET_NO":999,"REV_AT_EPOCH":12647,"BSTAR":6.5346e-5,"MEAN_MOTION_DOT":6.79e-6,"MEAN_MOTION_DDOT":0},{"OBJECT_NAME":"STARLINK-30469","OBJECT_ID":"2023-146F","EPOCH":"2025-12-28T05:10:11.474976","MEAN_MOTION":15.02539385,"ECCENTRICITY":0.0001018,"INCLINATION":43.0019,"RA_OF_ASC_NODE":341.807,"ARG_OF_PERICENTER":273.5385,"MEAN_ANOMALY":86.5341,"EPHEMERIS_TYPE":0,"CLASSIFICATION_TYPE":"U","NORAD_CAT_ID":57896,"ELEMENT_SET_NO":999,"REV_AT_EPOCH":12631,"BSTAR":6.8357e-5,"MEAN_MOTION_DOT":7.2e-6,"MEAN_MOTION_DDOT":0},{"OBJECT_NAME":"STARLINK-30474","OBJECT_ID":"2023-146G","EPOCH":"2025-12-28T16:12:17.620416","MEAN_MOTION":15.02540755,"ECCENTRICITY":6.888e-5,"INCLINATION":43.0048,"RA_OF_ASC_NODE":339.2373,"ARG_OF_PERICENTER":252.9754,"MEAN_ANOMALY":107.1013,"EPHEMERIS_TYPE":0,"CLASSIFICATION_TYPE":"U","NORAD_CAT_ID":57897,"ELEMENT_SET_NO":999,"REV_AT_EPOCH":12638,"BSTAR":0.00012907753,"MEAN_MOTION_DOT":1.541e-5,"MEAN_MOTION_DDOT":0},{"OBJECT_NAME":"STARLINK-30479","OBJECT_ID":"2023-146H","EPOCH":"2025-12-29T00:09:20.227104","MEAN_MOTION":15.0253907,"ECCENTRICITY":0.00010806,"INCLINATION":43.0051,"RA_OF_ASC_NODE":337.4226,"ARG_OF_PERICENTER":265.6818,"MEAN_ANOMALY":94.3901,"EPHEMERIS_TYPE":0,"CLASSIFICATION_TYPE":"U","NORAD_CAT_ID":57898,"ELEMENT_SET_NO":999,"REV_AT_EPOCH":12643,"BSTAR":8.2988282e-5,"MEAN_MOTION_DOT":9.18e-6,"MEAN_MOTION_DDOT":0},{"OBJECT_NAME":"STARLINK-30481","OBJECT_ID":"2023-146J","EPOCH":"2025-12-29T00:04:32.468448","MEAN_MOTION":15.02537017,"ECCENTRICITY":0.00015152,"INCLINATION":43.0063,"RA_OF_ASC_NODE":337.3975,"ARG_OF_PERICENTER":273.6875,"MEAN_ANOMALY":86.3794,"EPHEMERIS_TYPE":0,"CLASSIFICATION_TYPE":"U","NORAD_CAT_ID":57899,"ELEMENT_SET_NO":999,"REV_AT_EPOCH":12643,"BSTAR":4.6884823e-5,"MEAN_MOTION_DOT":4.3e-6,"MEAN_MOTION_DDOT":0}]
